*******************************************************************************
Ephemeris / WWW_USER Fri Mar  7 10:31:34 2025 Pasadena, USA      / Horizons    
*******************************************************************************
Target body name: (2018 RY7)                      {source: JPL#20}
Center body name: Earth (399)                     {source: DE441}
Center-site name: Mauna Kea
*******************************************************************************
Start time      : A.D. 2018-Sep-25 04:25:00.0000 UT      
Stop  time      : A.D. 2018-Sep-25 16:02:00.0000 UT      
Step-size       : 1 minutes
*******************************************************************************
Target pole/equ : undefined
Target radii    : undefined                                                    
Center geodetic : 204.5278, 19.8260847, 4.21024   {E-lon(deg),Lat(deg),Alt(km)}
Center cylindric: 204.5278, 6006.35451, 2151.0229 {E-lon(deg),Dxy(km),Dz(km)}
Center pole/equ : ITRF93                          {East-longitude positive}
Center radii    : 6378.137, 6378.137, 6356.752 km {Equator_a, b, pole_c}       
Target primary  : Sun
Vis. interferer : MOON (R_eq= 1737.400) km        {source: DE441}
Rel. light bend : Sun                             {source: DE441}
Rel. lght bnd GM: 1.3271E+11 km^3/s^2                                          
Small-body perts: Yes                             {source: SB441-N16}
Atmos refraction: NO (AIRLESS)
RA format       : HMS
Time format     : CAL 
Calendar mode   : Mixed Julian/Gregorian
RTS-only print  : NO       
EOP file        : eop.250306.p250602                                           
EOP coverage    : DATA-BASED 1962-JAN-20 TO 2025-MAR-06. PREDICTS-> 2025-JUN-01
Units conversion: 1 au= 149597870.700 km, c= 299792.458 km/s, 1 day= 86400.0 s 
Table cut-offs 1: Elevation (-90.0deg=NO ),Airmass (>38.000=NO), Daylight (YES)
Table cut-offs 2: Solar elongation (  0.0,180.0=NO ),Local Hour Angle( 0.0=NO )
Table cut-offs 3: RA/DEC angular rate (     0.0=NO )                           
*******************************************************************************
Initial IAU76/J2000 heliocentric ecliptic osculating elements (au, days, deg.):
  EPOCH=  2458422.5 ! 2018-Oct-31.00 (TDB)         Residual RMS= .22459        
   EC= .1470549687381346   QR= .8667733479166969   TP= 2458516.8896767548      
   OM= 2.838668085760325   W=  136.9006026425241   IN= 13.35135890147074       
  Equivalent ICRF heliocentric cartesian coordinates (au, au/d):
   X= 8.791791513870114E-01  Y= 4.508422091141234E-01  Z= 3.244113040133835E-01
  VX=-1.085418916943652E-02 VY= 1.006005810562689E-02 VZ= 7.673980932675997E-03
Asteroid physical parameters (km, seconds, rotational period in hours):        
   GM= n.a.                RAD= n.a.               ROTPER= n.a.                
   H= 24.4                 G= .150                 B-V= n.a.                   
                           ALBEDO= n.a.            STYP= n.a.                  
*******************************************************************************
 Date__(UT)__HR:MN     R.A._________(ICRF)_________DEC
******************************************************
$$SOE
 2018-Sep-25 08:31  m  00 20 28.236639 +00 45 23.60860
 2018-Sep-25 08:32  m  00 20 27.934973 +00 45 26.66819
 2018-Sep-25 08:33  m  00 20 27.633256 +00 45 29.72783
 2018-Sep-25 08:34  m  00 20 27.331486 +00 45 32.78753
 2018-Sep-25 08:35  m  00 20 27.029665 +00 45 35.84727
 2018-Sep-25 08:36  m  00 20 26.727792 +00 45 38.90706
 2018-Sep-25 08:37  m  00 20 26.425869 +00 45 41.96689
 2018-Sep-25 08:38  m  00 20 26.123895 +00 45 45.02678
 2018-Sep-25 08:39  m  00 20 25.821870 +00 45 48.08671
 2018-Sep-25 08:40  m  00 20 25.519796 +00 45 51.14669
 2018-Sep-25 08:41  m  00 20 25.217673 +00 45 54.20672
 2018-Sep-25 08:42  m  00 20 24.915500 +00 45 57.26680
 2018-Sep-25 08:43  m  00 20 24.613279 +00 46 00.32693
 2018-Sep-25 08:44  m  00 20 24.311009 +00 46 03.38710
 2018-Sep-25 08:45  m  00 20 24.008691 +00 46 06.44732
 2018-Sep-25 08:46  m  00 20 23.706326 +00 46 09.50759
 2018-Sep-25 08:47  m  00 20 23.403914 +00 46 12.56791
 2018-Sep-25 08:48  m  00 20 23.101454 +00 46 15.62827
 2018-Sep-25 08:49  m  00 20 22.798949 +00 46 18.68868
 2018-Sep-25 08:50  m  00 20 22.496397 +00 46 21.74914
 2018-Sep-25 08:51  m  00 20 22.193799 +00 46 24.80964
 2018-Sep-25 08:52  m  00 20 21.891157 +00 46 27.87019
 2018-Sep-25 08:53  m  00 20 21.588469 +00 46 30.93079
 2018-Sep-25 08:54  m  00 20 21.285737 +00 46 33.99144
 2018-Sep-25 08:55  m  00 20 20.982960 +00 46 37.05213
 2018-Sep-25 08:56  m  00 20 20.680140 +00 46 40.11287
 2018-Sep-25 08:57  m  00 20 20.377277 +00 46 43.17365
 2018-Sep-25 08:58  m  00 20 20.074370 +00 46 46.23448
 2018-Sep-25 08:59  m  00 20 19.771421 +00 46 49.29536
 2018-Sep-25 09:00  m  00 20 19.468430 +00 46 52.35628
 2018-Sep-25 09:01  m  00 20 19.165396 +00 46 55.41725
 2018-Sep-25 09:02  m  00 20 18.862322 +00 46 58.47827
 2018-Sep-25 09:03  m  00 20 18.559206 +00 47 01.53933
 2018-Sep-25 09:04  m  00 20 18.256050 +00 47 04.60043
 2018-Sep-25 09:05  m  00 20 17.952853 +00 47 07.66158
 2018-Sep-25 09:06  m  00 20 17.649616 +00 47 10.72278
 2018-Sep-25 09:07  m  00 20 17.346340 +00 47 13.78402
 2018-Sep-25 09:08  m  00 20 17.043025 +00 47 16.84531
 2018-Sep-25 09:09  m  00 20 16.739671 +00 47 19.90664
 2018-Sep-25 09:10  m  00 20 16.436279 +00 47 22.96802
 2018-Sep-25 09:11  m  00 20 16.132848 +00 47 26.02945
 2018-Sep-25 09:12  m  00 20 15.829381 +00 47 29.09091
 2018-Sep-25 09:13  m  00 20 15.525876 +00 47 32.15243
 2018-Sep-25 09:14  m  00 20 15.222334 +00 47 35.21398
 2018-Sep-25 09:15  m  00 20 14.918756 +00 47 38.27559
 2018-Sep-25 09:16  m  00 20 14.615142 +00 47 41.33723
 2018-Sep-25 09:17  m  00 20 14.311493 +00 47 44.39892
 2018-Sep-25 09:18  m  00 20 14.007808 +00 47 47.46066
 2018-Sep-25 09:19  m  00 20 13.704089 +00 47 50.52244
 2018-Sep-25 09:20  m  00 20 13.400335 +00 47 53.58426
 2018-Sep-25 09:21  m  00 20 13.096547 +00 47 56.64613
 2018-Sep-25 09:22  m  00 20 12.792726 +00 47 59.70804
 2018-Sep-25 09:23  m  00 20 12.488871 +00 48 02.77000
 2018-Sep-25 09:24  m  00 20 12.184984 +00 48 05.83200
 2018-Sep-25 09:25  m  00 20 11.881065 +00 48 08.89404
 2018-Sep-25 09:26  m  00 20 11.577113 +00 48 11.95613
 2018-Sep-25 09:27  m  00 20 11.273130 +00 48 15.01826
 2018-Sep-25 09:28  m  00 20 10.969116 +00 48 18.08043
 2018-Sep-25 09:29  m  00 20 10.665071 +00 48 21.14265
 2018-Sep-25 09:30  m  00 20 10.360996 +00 48 24.20491
 2018-Sep-25 09:31  m  00 20 10.056890 +00 48 27.26721
 2018-Sep-25 09:32  m  00 20 09.752756 +00 48 30.32955
 2018-Sep-25 09:33  m  00 20 09.448592 +00 48 33.39194
 2018-Sep-25 09:34  m  00 20 09.144399 +00 48 36.45437
 2018-Sep-25 09:35  m  00 20 08.840178 +00 48 39.51685
 2018-Sep-25 09:36  m  00 20 08.535930 +00 48 42.57937
 2018-Sep-25 09:37  m  00 20 08.231653 +00 48 45.64193
 2018-Sep-25 09:38  m  00 20 07.927350 +00 48 48.70453
 2018-Sep-25 09:39  m  00 20 07.623020 +00 48 51.76717
 2018-Sep-25 09:40  m  00 20 07.318664 +00 48 54.82986
 2018-Sep-25 09:41  m  00 20 07.014282 +00 48 57.89259
 2018-Sep-25 09:42  m  00 20 06.709874 +00 49 00.95536
 2018-Sep-25 09:43  m  00 20 06.405441 +00 49 04.01817
 2018-Sep-25 09:44  m  00 20 06.100984 +00 49 07.08103
 2018-Sep-25 09:45  m  00 20 05.796503 +00 49 10.14393
 2018-Sep-25 09:46  m  00 20 05.491997 +00 49 13.20687
 2018-Sep-25 09:47  m  00 20 05.187469 +00 49 16.26985
 2018-Sep-25 09:48  m  00 20 04.882917 +00 49 19.33287
 2018-Sep-25 09:49  m  00 20 04.578343 +00 49 22.39593
 2018-Sep-25 09:50  m  00 20 04.273747 +00 49 25.45904
 2018-Sep-25 09:51  m  00 20 03.969129 +00 49 28.52218
 2018-Sep-25 09:52  m  00 20 03.664489 +00 49 31.58537
 2018-Sep-25 09:53  m  00 20 03.359829 +00 49 34.64860
 2018-Sep-25 09:54  m  00 20 03.055148 +00 49 37.71187
 2018-Sep-25 09:55  m  00 20 02.750447 +00 49 40.77518
 2018-Sep-25 09:56  m  00 20 02.445727 +00 49 43.83853
 2018-Sep-25 09:57  m  00 20 02.140987 +00 49 46.90193
 2018-Sep-25 09:58  m  00 20 01.836228 +00 49 49.96536
 2018-Sep-25 09:59  m  00 20 01.531451 +00 49 53.02884
 2018-Sep-25 10:00  m  00 20 01.226656 +00 49 56.09235
 2018-Sep-25 10:01  m  00 20 00.921843 +00 49 59.15591
 2018-Sep-25 10:02  m  00 20 00.617013 +00 50 02.21950
 2018-Sep-25 10:03  m  00 20 00.312166 +00 50 05.28314
 2018-Sep-25 10:04  m  00 20 00.007303 +00 50 08.34682
 2018-Sep-25 10:05  m  00 19 59.702425 +00 50 11.41053
 2018-Sep-25 10:06  m  00 19 59.397530 +00 50 14.47429
 2018-Sep-25 10:07  m  00 19 59.092621 +00 50 17.53809
 2018-Sep-25 10:08  m  00 19 58.787696 +00 50 20.60192
 2018-Sep-25 10:09  m  00 19 58.482758 +00 50 23.66580
 2018-Sep-25 10:10  m  00 19 58.177805 +00 50 26.72972
 2018-Sep-25 10:11  m  00 19 57.872840 +00 50 29.79368
 2018-Sep-25 10:12  m  00 19 57.567861 +00 50 32.85767
 2018-Sep-25 10:13  m  00 19 57.262869 +00 50 35.92171
 2018-Sep-25 10:14  m  00 19 56.957866 +00 50 38.98578
 2018-Sep-25 10:15  m  00 19 56.652851 +00 50 42.04990
 2018-Sep-25 10:16  m  00 19 56.347824 +00 50 45.11405
 2018-Sep-25 10:17  m  00 19 56.042786 +00 50 48.17825
 2018-Sep-25 10:18  m  00 19 55.737738 +00 50 51.24248
 2018-Sep-25 10:19  m  00 19 55.432680 +00 50 54.30675
 2018-Sep-25 10:20  m  00 19 55.127612 +00 50 57.37106
 2018-Sep-25 10:21  m  00 19 54.822535 +00 51 00.43541
 2018-Sep-25 10:22  m  00 19 54.517449 +00 51 03.49980
 2018-Sep-25 10:23  m  00 19 54.212355 +00 51 06.56423
 2018-Sep-25 10:24  m  00 19 53.907253 +00 51 09.62870
 2018-Sep-25 10:25  m  00 19 53.602143 +00 51 12.69320
 2018-Sep-25 10:26  t  00 19 53.297026 +00 51 15.75775
 2018-Sep-25 10:27  e  00 19 52.991902 +00 51 18.82233
 2018-Sep-25 10:28  m  00 19 52.686772 +00 51 21.88695
 2018-Sep-25 10:29  m  00 19 52.381636 +00 51 24.95161
 2018-Sep-25 10:30  m  00 19 52.076495 +00 51 28.01631
 2018-Sep-25 10:31  m  00 19 51.771348 +00 51 31.08105
 2018-Sep-25 10:32  m  00 19 51.466197 +00 51 34.14582
 2018-Sep-25 10:33  m  00 19 51.161042 +00 51 37.21064
